ONEWEB-0363             
1 49289U 21090L   25148.85043284 -.00000001  00000+0 -35582-4 0  9997
2 49289  87.9265 350.9807 0001822  74.6426 285.4909 13.20770706180408
ONEWEB-0364             
1 49290U 21090M   25148.28226131  .00000125  00000+0  27452-3 0  9991
2 49290  87.9268 351.1236 0001718  83.3271 276.8057 13.20771564180637
ONEWEB-0365             
1 49291U 21090N   25148.34066296  .00000017  00000+0  11304-4 0  9993
2 49291  87.9231  21.4536 0001777  86.1302 274.0033 13.19725195175667
ONEWEB-0366             
1 49292U 21090P   25148.35602004  .00000214  00000+0  54147-3 0  9998
2 49292  87.9049   6.2777 0001795  83.0309 277.1025 13.14504199177005
ONEWEB-0367             
1 49293U 21090Q   25148.31855622  .00000027  00000+0  34389-4 0  9990
2 49293  87.9264 351.0818 0001874  94.9680 265.1667 13.20771750179022
ONEWEB-0368             
1 49294U 21090R   25148.29172819  .00000004  00000+0 -22967-4 0  9993
2 49294  87.9266 351.1203 0001008  73.6994 286.4250 13.20770547180170
ONEWEB-0369             
1 49295U 21090S   25148.33592695  .00000023  00000+0  25558-4 0  9996
2 49295  87.9238  21.4811 0001722  83.5634 276.5694 13.19725757175656
ONEWEB-0370             
1 49296U 21090T   25148.85832538 -.00000052  00000+0 -15859-3 0  9993
2 49296  87.9264 350.9797 0002146  92.2221 267.9158 13.20770144180432
